IRIDIUM 921 [-]         
1 24873U 97034E   24104.61085041  .00024554  00000+0  72694-3 0  9993
2 24873  86.3816 319.9931 0005835 121.2116 238.9707 15.34741441465261
IRIDIUM 26 [-]          
1 24903U 97043A   24104.88853904  .00000593  00000+0  19627-3 0  9991
2 24903  86.3903 290.7541 0002311  89.5963 270.5499 14.36275263395107
IRIDIUM 22 [-]          
1 24907U 97043E   24104.89451547  .00000544  00000+0  18369-3 0  9991
2 24907  86.3908 293.9400 0002079  91.3832 268.7603 14.35167897395188
DUMMY MASS 1 [-]        
1 24925U 97048A   24104.69031200  .00000518  00000+0  55904-4 0  9992
2 24925  86.3353 333.8063 0005238 211.2750 148.8163 14.86131185441327
DUMMY MASS 2 [-]        
1 24926U 97048B   24104.71646164  .00000518  00000+0  56270-4 0  9994
2 24926  86.3357 335.3255 0005662 227.5505 132.5242 14.85890265441116
IRIDIUM 29 [-]          
1 24944U 97051A   24104.70844201  .00000448  00000+0  14870-3 0  9990
2 24944  86.3947 323.9555 0001984  93.5264 266.6159 14.35626303391635
IRIDIUM 33 [-]          
1 24946U 97051C   24104.67517999  .00000304  00000+0  10138-3 0  9993
2 24946  86.3862 323.2255 0009475  50.1356 310.0672 14.34306903391169
IRIDIUM 28 [-]          
1 24948U 97051E   24104.61570881  .00000457  00000+0  14892-3 0  9998
2 24948  86.3948 321.7558 0002512  82.8937 277.2545 14.36575334392158
